{
    "links": {
        "self": "http://www.neowsapp.com/rest/v1/neo/3545508?api_key=iIulBulltgU6a56xZRHN4H3l9WmuAYTsLGpBGhQ2"
    },
    "id": "3545508",
    "neo_reference_id": "3545508",
    "name": "(2010 RV11)",
    "designation": "2010 RV11",
    "nasa_jpl_url": "http://ssd.jpl.nasa.gov/sbdb.cgi?sstr=3545508",
    "absolute_magnitude_h": 27.0,
    "estimated_diameter": {
        "kilometers": {
            "estimated_diameter_min": 0.0105816886,
            "estimated_diameter_max": 0.023661375
        },
        "meters": {
            "estimated_diameter_min": 10.5816885933,
            "estimated_diameter_max": 23.6613750114
        },
        "miles": {
            "estimated_diameter_min": 0.0065751544,
            "estimated_diameter_max": 0.0147024923
        },
        "feet": {
            "estimated_diameter_min": 34.7168272045,
            "estimated_diameter_max": 77.6291855923
        }
    },
    "is_potentially_hazardous_asteroid": false,
    "close_approach_data": [
        {
            "close_approach_date": "2010-09-02",
            "close_approach_date_full": "2010-Sep-02 08:45",
            "epoch_date_close_approach": 1283417100000,
            "relative_velocity": {
                "kilometers_per_second": "4.8325648436",
                "kilometers_per_hour": "17397.2334368242",
                "miles_per_hour": "10809.9642985645"
            },
            "miss_distance": {
                "astronomical": "0.0421443795",
                "lunar": "16.3941636255",
                "kilometers": "6304709.405671665",
                "miles": "3917564.764792377"
            },
            "orbiting_body": "Earth"
        }
    ],
    "orbital_data": {
        "orbit_id": "9",
        "orbit_determination_date": "2017-04-06 08:56:54",
        "first_observation_date": "2010-09-03",
        "last_observation_date": "2010-09-09",
        "data_arc_in_days": 6,
        "observations_used": 38,
        "orbit_uncertainty": "8",
        "minimum_orbit_intersection": ".0403813",
        "jupiter_tisserand_invariant": "4.309",
        "epoch_osculation": "2455443.5",
        "eccentricity": ".3398112881373558",
        "semi_major_axis": "1.590360405364319",
        "inclination": "4.34684556027666",
        "ascending_node_longitude": "337.21825295",
        "orbital_period": "732.5575672611975",
        "perihelion_distance": "1.049937987414822",
        "perihelion_argument": "1.323915587402843",
        "aphelion_distance": "2.130782823313815",
        "perihelion_time": "2455441.325806817243",
        "mean_anomaly": "1.068461484493055",
        "mean_motion": ".4914289553323801",
        "equinox": "J2000",
        "orbit_class": {
            "orbit_class_type": "AMO",
            "orbit_class_description": "Near-Earth asteroid orbits similar to that of 1221 Amor",
            "orbit_class_range": "1.017 AU < q (perihelion) < 1.3 AU"
        }
    },
    "is_sentry_object": false
}